[{"OBJECT_NAME":"STARLINK-30130","OBJECT_ID":"2023-067K","EPOCH":"2026-03-08T23:28:59.065824","MEAN_MOTION":15.26744788,"ECCENTRICITY":0.00021899,"INCLINATION":43.0019,"RA_OF_ASC_NODE":274.8532,"ARG_OF_PERICENTER":263.0588,"MEAN_ANOMALY":97.0015,"EPHEMERIS_TYPE":0,"CLASSIFICATION_TYPE":"U","NORAD_CAT_ID":56697,"ELEMENT_SET_NO":999,"REV_AT_EPOCH":15533,"BSTAR":4.57425e-7,"MEAN_MOTION_DOT":-2.48e-6,"MEAN_MOTION_DDOT":0},{"OBJECT_NAME":"SITRO-AIS 5 (KATYS)","OBJECT_ID":"2023-091L","EPOCH":"2026-03-09T22:36:44.932608","MEAN_MOTION":15.27079182,"ECCENTRICITY":0.00133776,"INCLINATION":97.5176,"RA_OF_ASC_NODE":132.0172,"ARG_OF_PERICENTER":94.5677,"MEAN_ANOMALY":265.709,"EPHEMERIS_TYPE":0,"CLASSIFICATION_TYPE":"U","NORAD_CAT_ID":57176,"ELEMENT_SET_NO":999,"REV_AT_EPOCH":14918,"BSTAR":0.00057530772,"MEAN_MOTION_DOT":0.00015262,"MEAN_MOTION_DDOT":0}]
